OBJECT_NAME,OBJECT_ID,EPOCH,MEAN_MOTION,ECCENTRICITY,INCLINATION,RA_OF_ASC_NODE,ARG_OF_PERICENTER,MEAN_ANOMALY,EPHEMERIS_TYPE,CLASSIFICATION_TYPE,NORAD_CAT_ID,ELEMENT_SET_NO,REV_AT_EPOCH,BSTAR,MEAN_MOTION_DOT,MEAN_MOTION_DDOT
COSMOS 2534 (758),2019-030A,2026-07-16T15:35:19.703040,2.13102191,.0013502,64.3705,191.6243,275.0108,146.6615,0,U,44299,999,5555,0,.52E-6,0
BEIDOU-3 IGSO-2 (C39),2019-035A,2026-07-17T18:58:09.302016,1.00256724,.00392839,55.2514,158.5934,216.3777,323.5324,0,U,44337,999,2597,0,-.127E-5,0
GPS BIII-2  (PRN 18),2019-056A,2026-07-17T13:03:37.816416,2.00570120,.0063535,55.6206,329.9359,198.1981,149.1155,0,U,44506,999,5067,0,-.1E-5,0
BEIDOU-3 M24 (C46),2019-061A,2026-07-17T20:22:15.399840,1.86229139,.00086561,54.3974,181.6938,359.7978,0.1726,0,U,44542,999,4636,0,.52E-6,0
BEIDOU-3 M23 (C45),2019-061B,2026-07-16T08:45:12.138912,1.86227496,.0005956,54.3958,181.7121,340.9242,15.4707,0,U,44543,999,4633,0,.41E-6,0
EUTELSAT 5 WEST B (EGNOS/PRN 121),2019-067A,2026-07-18T06:21:32.060160,1.00271014,.00030744,0.0792,319.6464,157.7821,269.0146,0,U,44624,999,2474,0,-.5E-6,0
BEIDOU-3 M22 (C44),2019-078A,2026-07-13T09:26:32.496288,1.86227300,.00057504,53.9106,298.9058,50.3045,309.7753,0,U,44793,999,4513,0,-.62E-6,0
BEIDOU-3 M21 (C43),2019-078B,2026-07-17T19:53:44.350656,1.86227742,.00035266,53.8792,298.7098,49.8357,310.2350,0,U,44794,999,4522,0,-.83E-6,0
COSMOS 2544 (759),2019-088A,2026-07-17T12:45:06.045408,2.13102863,.00120885,65.5819,72.7186,253.3927,106.5489,0,U,44850,999,5136,0,-.24E-6,0
BEIDOU-3 M19 (C41),2019-090A,2026-07-17T19:21:35.758368,1.86231385,.00167875,56.5857,61.7789,297.6013,245.0681,0,U,44864,999,4480,0,-.6E-6,0
BEIDOU-3 M20 (C42),2019-090B,2026-07-18T05:58:35.347872,1.86231410,.00142806,56.5878,61.7982,312.4225,256.4049,0,U,44865,999,4479,0,-.64E-6,0
BEIDOU-3 G2 (C60),2020-017A,2026-07-17T23:55:10.673184,1.00272377,.00017687,2.9256,47.7776,59.2787,267.5564,0,U,45344,999,2356,0,-.15E-5,0
COSMOS 2545 (760),2020-018A,2026-07-17T17:25:47.936064,2.13102350,.00096638,64.3350,311.3457,229.7748,130.1625,0,U,45358,999,4931,0,-.69E-6,0
BEIDOU-3 G3 (C61),2020-040A,2026-07-18T06:54:28.900800,1.00274975,.00022358,2.5221,67.4941,308.5280,134.1976,0,U,45807,999,2238,0,-.363E-5,0
GPS BIII-3  (PRN 23),2020-041A,2026-07-17T09:40:05.795040,2.00557849,.0065297,56.6898,27.7716,204.6840,337.6305,0,U,45854,999,4464,0,-.83E-6,0
GALAXY 30 (WAAS/PRN 135),2020-056C,2026-07-18T05:18:38.669760,1.00271192,.00022943,0.0231,61.1838,58.1239,131.3923,0,U,46114,999,2160,0,0,0
COSMOS 2547 (705K),2020-075A,2026-07-15T13:40:19.372224,2.13099910,.00094588,64.6014,191.5282,239.8249,120.0839,0,U,46805,999,4451,0,.54E-6,0
GPS BIII-4  (PRN 14),2020-078A,2026-07-18T05:56:23.169696,2.00565010,.00746245,53.9768,209.5185,207.9047,201.6972,0,U,46826,999,4213,0,.44E-6,0
GPS BIII-5  (PRN 11),2021-054A,2026-07-18T04:45:12.936960,2.00567008,.00265179,55.1578,331.2126,228.5635,331.7092,0,U,48859,999,3737,0,-.103E-5,0
QZS-1R (QZSS/PRN 196),2021-096A,2026-07-17T13:39:38.744352,1.00244494,.0755353,37.5223,79.1315,272.2799,280.3110,0,U,49336,999,1731,0,-.311E-5,0
GSAT0223 (GALILEO 27),2021-116A,2026-07-16T21:55:53.520960,1.70476073,.00024409,57.1499,340.8723,195.3183,168.4273,0,U,49809,999,2869,0,-.103E-5,0
GSAT0224 (GALILEO 28),2021-116B,2026-07-16T17:27:13.396896,1.70476111,.00018421,57.1497,340.8759,181.9610,179.9110,0,U,49810,999,2871,0,-.103E-5,0
COSMOS 2557 (706K),2022-075A,2026-07-15T17:36:40.979232,2.13102146,.00108557,64.2802,313.4798,271.2186,88.6706,0,U,52984,999,3132,0,-.64E-6,0
COSMOS 2559 (707K),2022-130A,2026-07-17T21:35:44.105856,2.13101711,.00131306,64.2511,313.4857,181.3333,178.6825,0,U,54031,999,2934,0,-.72E-6,0
COSMOS 2564 (761),2022-161A,2026-07-17T17:49:47.483616,2.13102013,.00122021,64.7440,191.6974,224.8378,135.0614,0,U,54377,999,2828,0,.58E-6,0
GPS BIII-6  (PRN 28),2023-009A,2026-07-17T02:59:03.820992,2.00569455,.00062381,55.1244,147.3421,322.1969,221.4770,0,U,55268,999,2584,0,.24E-6,0
BEIDOU-3 G4 (C62),2023-066A,2026-07-18T07:02:50.598816,1.00271695,.00049773,0.4580,339.8752,185.1329,16.8692,0,U,56564,999,1170,0,-.289E-5,0
NVS-01 (IRNSS-1J),2023-076A,2026-07-18T06:59:50.886816,1.00277236,.00030644,2.0942,242.9282,20.1091,267.4536,0,U,56759,999,1142,0,-.343E-5,0
COSMOS 2569 (703K),2023-114A,2026-07-15T21:04:36.390144,2.13103741,.00096551,65.3185,71.6532,295.9092,64.0686,0,U,57517,999,2287,0,-.13E-6,0
BEIDOU-3 M28 (C50),2023-207A,2026-07-17T21:44:31.744608,1.86229739,.00023361,55.7801,61.2668,7.0710,353.0002,0,U,58654,999,1741,0,-.63E-6,0
BEIDOU-3 M26 (C48),2023-207B,2026-07-17T16:52:55.449120,1.86229717,.00018622,55.7823,61.2602,324.7003,35.3559,0,U,58655,999,1739,0,-.61E-6,0
